0 DELTA 1 R/B
1 03616U 68114B   13283.81363990 -.00000039  00000-0  27456-4 0  7957
2 03616 101.5418 339.7136 0013614 037.6988 073.6605 12.51330544 49576
0 DELTA 1 R/B
1 03616U 68114B   13286.11930539 -.00000017  00000-0  16951-3 0  7966
2 03616 101.5413 341.9470 0013574 033.2058 020.2250 12.51330433 49865
0 DELTA 1 R/B
1 03616U 68114B   13288.77160905 -.00000027  00000-0  10477-3 0  7971
2 03616 101.5404 344.5161 0013540 028.0775 088.2831 12.51330518 50193
0 DELTA 1 R/B
1 03616U 68114B   13291.15769855 -.00000029  00000-0  91466-4 0  7987
2 03616 101.5397 346.8271 0013515 023.4261 037.1431 12.51330842 50494
0 DELTA 1 R/B
1 03616U 68114B   13293.80700435 -.00000049  00000-0 -33503-4 0  7992
2 03616 101.5393 349.3926 0013499 018.3690 091.6341 12.51330999 50820
0 DELTA 1 R/B
1 03616U 68114B   13296.11538846 -.00000055  00000-0 -74798-4 0  8005
2 03616 101.5392 351.6279 0013471 013.6797 050.6384 12.51330998 51116
